{
  "type": "FeatureCollection",
  "features": [
    {
      "type": "Feature",
      "properties": {
        "norad_id": 31307,
        "name": "GALAXY 17 (G-17)",
        "group": "intelsat",
        "lat": -1.8456972569557204,
        "lon": -49.478436154205966,
        "alt_km": 35778.88431665453,
        "timestamp": "2025-12-02T21:34:00.940833+00:00",
        "meta_object_name": "GALAXY 17 (G-17)",
        "meta_object_id": "2007-016B",
        "meta_epoch": "2025-12-02T08:14:34.376352",
        "meta_mean_motion": 1.00270476,
        "meta_eccentricity": 0.0006097,
        "meta_inclination": 2.4715,
        "meta_ra_of_asc_node": 82.4066,
        "meta_arg_of_pericenter": 155.6776,
        "meta_mean_anomaly": 232.0142,
        "meta_ephemeris_type": 0,
        "meta_classification_type": "U",
        "meta_norad_cat_id": 31307,
        "meta_element_set_no": 999,
        "meta_rev_at_epoch": 6783,
        "meta_bstar": 0,
        "meta_mean_motion_dot": -1.86e-06,
        "meta_mean_motion_ddot": 0,
        "tle_line1": "1 31307U 07016B   25336.34345343 -.00000186  00000+0  00000+0 0  9990",
        "tle_line2": "2 31307   2.4715  82.4066 0006097 155.6776 232.0142  1.00270476 67835"
      },
      "geometry": {
        "type": "Point",
        "coordinates": [
          -49.478436154205966,
          -1.8456972569557204
        ]
      }
    },
    {
      "type": "Feature",
      "properties": {
        "norad_id": 31862,
        "name": "DIRECTV 10",
        "group": "intelsat",
        "lat": 0.000847585919786237,
        "lon": -67.31611762507478,
        "alt_km": 35786.30195258179,
        "timestamp": "2025-12-02T21:34:00.940846+00:00",
        "meta_object_name": "DIRECTV 10",
        "meta_object_id": "2007-032A",
        "meta_epoch": "2025-12-02T12:21:09.016416",
        "meta_mean_motion": 1.00270723,
        "meta_eccentricity": 4.01e-05,
        "meta_inclination": 0.0006,
        "meta_ra_of_asc_node": 88.1067,
        "meta_arg_of_pericenter": 117.0957,
        "meta_mean_anomaly": 308.9108,
        "meta_ephemeris_type": 0,
        "meta_classification_type": "U",
        "meta_norad_cat_id": 31862,
        "meta_element_set_no": 999,
        "meta_rev_at_epoch": 4362,
        "meta_bstar": 0,
        "meta_mean_motion_dot": -8.3e-07,
        "meta_mean_motion_ddot": 0,
        "tle_line1": "1 31862U 07032A   25336.51468769 -.00000083  00000+0  00000+0 0  9997",
        "tle_line2": "2 31862   0.0006  88.1067 0000401 117.0957 308.9108  1.00270723 43629"
      },
      "geometry": {
        "type": "Point",
        "coordinates": [
          -67.31611762507478,
          0.000847585919786237
        ]
      }
    },
    {
      "type": "Feature",
      "properties": {
        "norad_id": 32253,
        "name": "INTELSAT 11 (IS-11)",
        "group": "intelsat",
        "lat": -2.108440800699974,
        "lon": -55.43310592108505,
        "alt_km": 36115.187394839224,
        "timestamp": "2025-12-02T21:34:00.940858+00:00",
        "meta_object_name": "INTELSAT 11 (IS-11)",
        "meta_object_id": "2007-044B",
        "meta_epoch": "2025-12-02T08:13:34.470912",
        "meta_mean_motion": 0.99047467,
        "meta_eccentricity": 0.0009251,
        "meta_inclination": 3.0507,
        "meta_ra_of_asc_node": 81.0936,
        "meta_arg_of_pericenter": 160.4094,
        "meta_mean_anomaly": 224.8233,
        "meta_ephemeris_type": 0,
        "meta_classification_type": "U",
        "meta_norad_cat_id": 32253,
        "meta_element_set_no": 999,
        "meta_rev_at_epoch": 6650,
        "meta_bstar": 0,
        "meta_mean_motion_dot": -1.2e-07,
        "meta_mean_motion_ddot": 0,
        "tle_line1": "1 32253U 07044B   25336.34276008 -.00000012  00000+0  00000+0 0  9991",
        "tle_line2": "2 32253   3.0507  81.0936 0009251 160.4094 224.8233  0.99047467 66507"
      },
      "geometry": {
        "type": "Point",
        "coordinates": [
          -55.43310592108505,
          -2.108440800699974
        ]
      }
    },
    {
      "type": "Feature",
      "properties": {
        "norad_id": 32388,
        "name": "HORIZONS-2",
        "group": "intelsat",
        "lat": -1.7867749093726322,
        "lon": -38.277603694737216,
        "alt_km": 35775.48386224714,
        "timestamp": "2025-12-02T21:34:00.940870+00:00",
        "meta_object_name": "HORIZONS-2",
        "meta_object_id": "2007-063B",
        "meta_epoch": "2025-12-02T08:17:49.064064",
        "meta_mean_motion": 1.00272468,
        "meta_eccentricity": 0.0004907,
        "meta_inclination": 2.0922,
        "meta_ra_of_asc_node": 83.0757,
        "meta_arg_of_pericenter": 179.7526,
        "meta_mean_anomaly": 219.2901,
        "meta_ephemeris_type": 0,
        "meta_classification_type": "U",
        "meta_norad_cat_id": 32388,
        "meta_element_set_no": 999,
        "meta_rev_at_epoch": 6584,
        "meta_bstar": 0,
        "meta_mean_motion_dot": -2.33e-06,
        "meta_mean_motion_ddot": 0,
        "tle_line1": "1 32388U 07063B   25336.34570676 -.00000233  00000+0  00000+0 0  9994",
        "tle_line2": "2 32388   2.0922  83.0757 0004907 179.7526 219.2901  1.00272468 65845"
      },
      "geometry": {
        "type": "Point",
        "coordinates": [
          -38.277603694737216,
          -1.7867749093726322
        ]
      }
    },
    {
      "type": "Feature",
      "properties": {
        "norad_id": 32729,
        "name": "DIRECTV 11",
        "group": "intelsat",
        "lat": 2.344679395733921e-05,
        "lon": -63.71134986435881,
        "alt_km": 35786.85340264307,
        "timestamp": "2025-12-02T21:34:00.940882+00:00",
        "meta_object_name": "DIRECTV 11",
        "meta_object_id": "2008-013A",
        "meta_epoch": "2025-12-02T10:08:34.464768",
        "meta_mean_motion": 1.0027113,
        "meta_eccentricity": 4.09e-05,
        "meta_inclination": 0.0114,
        "meta_ra_of_asc_node": 215.6397,
        "meta_arg_of_pericenter": 330.8354,
        "meta_mean_anomaly": 298.008,
        "meta_ephemeris_type": 0,
        "meta_classification_type": "U",
        "meta_norad_cat_id": 32729,
        "meta_element_set_no": 999,
        "meta_rev_at_epoch": 4362,
        "meta_bstar": 0,
        "meta_mean_motion_dot": -1.05e-06,
        "meta_mean_motion_ddot": 0,
        "tle_line1": "1 32729U 08013A   25336.42262112 -.00000105  00000+0  00000+0 0  9999",
        "tle_line2": "2 32729   0.0114 215.6397 0000409 330.8354 298.0080  1.00271130 43620"
      },
      "geometry": {
        "type": "Point",
        "coordinates": [
          -63.71134986435881,
          2.344679395733921e-05
        ]
      }
    },
    {
      "type": "Feature",
      "properties": {
        "norad_id": 32951,
        "name": "GALAXY 18 (G-18)",
        "group": "intelsat",
        "lat": -0.03713761524275164,
        "lon": -87.53939623519449,
        "alt_km": 35772.128662882125,
        "timestamp": "2025-12-02T21:34:00.940894+00:00",
        "meta_object_name": "GALAXY 18 (G-18)",
        "meta_object_id": "2008-024A",
        "meta_epoch": "2025-12-02T10:45:38.709216",
        "meta_mean_motion": 1.00272743,
        "meta_eccentricity": 0.0003389,
        "meta_inclination": 0.0216,
        "meta_ra_of_asc_node": 343.0458,
        "meta_arg_of_pericenter": 271.5614,
        "meta_mean_anomaly": 215.3306,
        "meta_ephemeris_type": 0,
        "meta_classification_type": "U",
        "meta_norad_cat_id": 32951,
        "meta_element_set_no": 999,
        "meta_rev_at_epoch": 4388,
        "meta_bstar": 0,
        "meta_mean_motion_dot": 0,
        "meta_mean_motion_ddot": 0,
        "tle_line1": "1 32951U 08024A   25336.44836469  .00000000  00000+0  00000+0 0  9995",
        "tle_line2": "2 32951   0.0216 343.0458 0003389 271.5614 215.3306  1.00272743 43886"
      },
      "geometry": {
        "type": "Point",
        "coordinates": [
          -87.53939623519449,
          -0.03713761524275164
        ]
      }
    },
    {
      "type": "Feature",
      "properties": {
        "norad_id": 33153,
        "name": "INTELSAT 25 (IS-25)",
        "group": "intelsat",
        "lat": -2.1392358679818457,
        "lon": 4.051697358324186,
        "alt_km": 35792.3047550043,
        "timestamp": "2025-12-02T21:34:00.940906+00:00",
        "meta_object_name": "INTELSAT 25 (IS-25)",
        "meta_object_id": "2008-034A",
        "meta_epoch": "2025-12-02T08:29:55.406400",
        "meta_mean_motion": 1.00271705,
        "meta_eccentricity": 0.0005278,
        "meta_inclination": 2.1986,
        "meta_ra_of_asc_node": 82.7644,
        "meta_arg_of_pericenter": 176.1144,
        "meta_mean_anomaly": 268.5703,
        "meta_ephemeris_type": 0,
        "meta_classification_type": "U",
        "meta_norad_cat_id": 33153,
        "meta_element_set_no": 999,
        "meta_rev_at_epoch": 6372,
        "meta_bstar": 0,
        "meta_mean_motion_dot": -2.03e-06,
        "meta_mean_motion_ddot": 0,
        "tle_line1": "1 33153U 08034A   25336.35411350 -.00000203  00000+0  00000+0 0  9995",
        "tle_line2": "2 33153   2.1986  82.7644 0005278 176.1144 268.5703  1.00271705 63722"
      },
      "geometry": {
        "type": "Point",
        "coordinates": [
          4.051697358324186,
          -2.1392358679818457
        ]
      }
    }
  ]
}